BEIDOU-3 M16 (C35)      
1 43647U 18078A   25126.54987301 -.00000073  00000+0  00000+0 0  9990
2 43647  54.4550 314.2034 0007801  30.3331 329.7155  1.86232367 44586
BEIDOU-3 M15 (C34)      
1 43648U 18078B   25126.14217182 -.00000071  00000+0  00000+0 0  9998
2 43648  54.4511 314.2193 0004884  43.1848 316.8570  1.86232360 44595
BEIDOU-3 G1 (C59)       
1 43683U 18085A   25127.19640731 -.00000278  00000+0  00000+0 0  9990
2 43683   3.0055  99.0966 0004459  10.0634 326.8526  1.00268334 23985
COSMOS 2529 (757)       
1 43687U 18086A   25126.80280503 -.00000018  00000+0  00000+0 0  9991
2 43687  64.2915 206.3205 0010345 257.1643 102.7676  2.13102077 50621
BEIDOU-3 M17 (C36)      
1 43706U 18093A   25127.37098759  .00000003  00000+0  00000+0 0  9997
2 43706  54.1836 196.0641 0009174 284.9926  74.9692  1.86228542 43964
BEIDOU-3 M18 (C37)      
1 43707U 18093B   25126.69676664 -.00000007  00000+0  00000+0 0  9994
2 43707  54.1843 196.0788 0007134 314.6362  45.3663  1.86229962 43961
GPS BIII-1  (PRN 04)    
1 43873U 18109A   25126.67017729  .00000054  00000+0  00000+0 0  9996
2 43873  55.4465 108.2396 0033179 197.8427 161.2782  2.00568852 46919
BEIDOU-3 IGSO-1 (C38)   
1 44204U 19023A   25127.46260756 -.00000239  00000+0  00000+0 0  9995
2 44204  58.1208  41.8413 0020768 226.1322 241.6514  1.00258169 22292
BEIDOU-2 G8 (C01)       
1 44231U 19027A   25126.91167032 -.00000250  00000+0  00000+0 0  9994
2 44231   1.5891  74.9262 0004716 257.8643   4.8994  1.00268711 22007
COSMOS 2534 (758)       
1 44299U 19030A   25127.18569983 -.00000014  00000+0  00000+0 0  9991
2 44299  64.3646 206.2914 0012034 278.6676 149.3266  2.13102445 46266
BEIDOU-3 IGSO-2 (C39)   
1 44337U 19035A   25125.49573682 -.00000094  00000+0  00000+0 0  9990
2 44337  55.2018 162.4409 0035721 209.7894 149.2072  1.00284587 21606
GPS BIII-2  (PRN 18)    
1 44506U 19056A   25126.04963950 -.00000097  00000+0  00000+0 0  9997
2 44506  55.7924 347.3016 0050739 193.0789 338.7389  2.00561816 41902
BEIDOU-3 M24 (C46)      
1 44542U 19061A   25127.30451208  .00000001  00000+0  00000+0 0  9995
2 44542  54.4113 196.4170 0007583 356.7059   3.3519  1.86229127 38230
BEIDOU-3 M23 (C45)      
1 44543U 19061B   25127.55316693  .00000005  00000+0  00000+0 0  9995
2 44543  54.4097 196.3771 0004824 337.3883 102.0945  1.86229392 38237
EUTELSAT 5 WEST B (EGN*)
1 44624U 19067A   25127.16764991 -.00000044  00000+0  00000+0 0  9990
2 44624   0.0682   7.8685 0003167  32.0398 240.7195  1.00270810 20351
BEIDOU-3 IGSO-3 (C40)   
1 44709U 19073A   25126.83822914 -.00000201  00000+0  00000+0 0  9999
2 44709  55.4988 285.2762 0043929 182.1213 177.7750  1.00257809 20369
BEIDOU-3 M22 (C44)      
1 44793U 19078A   25126.61022442 -.00000073  00000+0  00000+0 0  9998
2 44793  54.3020 314.0937 0006840  38.1593 321.8924  1.86232230 37081
BEIDOU-3 M21 (C43)      
1 44794U 19078B   25126.20578676 -.00000072  00000+0  00000+0 0  9998
2 44794  54.2757 314.0771 0004805  36.1315 323.9042  1.86227850 37078
COSMOS 2544 (759)       
1 44850U 19088A   25127.11820451  .00000017  00000+0  00000+0 0  9992
2 44850  65.3445  87.3052 0014723 262.4681  97.3418  2.13102048 42044
BEIDOU-3 M19 (C41)      
1 44864U 19090A   25126.84915330 -.00000026  00000+0  00000+0 0  9991
2 44864  56.2022  76.2590 0019350 290.8070 334.1028  1.86231722 36662
BEIDOU-3 M20 (C42)      
1 44865U 19090B   25125.57291764 -.00000017  00000+0  00000+0 0  9999
2 44865  56.2029  76.3351 0017233 303.3467 275.5750  1.86231576 36627
BEIDOU-3 G2 (C60)       
1 45344U 20017A   25127.19920840 -.00000142  00000+0  00000+0 0  9996
2 45344   2.8046  39.5739 0002597 347.8204 349.6324  1.00271412 19200
COSMOS 2545 (760)       
1 45358U 20018A   25126.37632038 -.00000045  00000+0  00000+0 0  9992
2 45358  64.5918 326.6841 0007122 241.8552 118.1026  2.13102607 39990
BEIDOU-3 G3 (C61)       
1 45807U 20040A   25126.90489365 -.00000356  00000+0  00000+0 0  9993
2 45807   1.4669  63.0439 0002438 325.3925 272.8380  1.00268247 17999
GPS BIII-3  (PRN 23)    
1 45854U 20041A   25126.77426513 -.00000094  00000+0  00000+0 0  9996
2 45854  56.3865  44.7550 0052097 199.5308  78.9276  2.00567537 35882
GALAXY 30 (WAAS/PRN 135)
1 46114U 20056C   25127.20044566  .00000035  00000+0  00000+0 0  9999
2 46114   0.0037  61.8868 0002174 340.4863 130.0813  1.00271276 17333
COSMOS 2547 (705K)      
1 46805U 20075A   25125.62377385 -.00000025  00000+0  00000+0 0  9999
2 46805  64.5948 206.0815 0008092 238.0309 121.9368  2.13100424 35226
GPS BIII-4  (PRN 14)    
1 46826U 20078A   25124.47324443 -.00000044  00000+0  00000+0 0  9995
2 46826  54.0715 227.3593 0058075 200.6126 186.0263  2.00558290 33310
GPS BIII-5  (PRN 11)    
1 48859U 21054A   25125.42405946 -.00000101  00000+0  00000+0 0  9996
2 48859  55.3245 348.8287 0018886 227.8108 315.4969  2.00566584 28574
QZS-1R (QZSS/PRN 196)   
1 49336U 21096A   25127.19753676 -.00000231  00000+0  00000+0 0  9999
2 49336  36.6215  85.6294 0754105 270.8949  76.4137  1.00268812 12936
GSAT0223 (GALILEO 27)   
1 49809U 21116A   25122.08424090 -.00000098  00000+0  00000+0 0  9996
2 49809  57.2679 352.7716 0000463 227.9547 308.9160  1.70475455 21174
GSAT0224 (GALILEO 28)   
1 49810U 21116B   25124.84489079 -.00000100  00000+0  00000+0 0  9996
2 49810  57.2682 352.6953 0000303  40.3589 143.3315  1.70475782 21242
COSMOS 2557 (706K)      
1 52984U 22075A   25127.19851767 -.00000047  00000+0  00000+0 0  9995
2 52984  64.5269 328.7560 0010599 283.0257  76.8888  2.13102149 22051
COSMOS 2559 (707K)      
1 54031U 22130A   25114.94157522 -.00000021  00000+0  00000+0 0  9991
2 54031  64.5047 329.2927 0005146 218.2920 141.7229  2.13101246 19775
COSMOS 2564 (761)       
1 54377U 22161A   25127.33142965 -.00000012  00000+0  00000+0 0  9990
2 54377  64.7365 206.1876 0010676 220.0445 139.9258  2.13102054 18987
GPS BIII-6  (PRN 28)    
1 55268U 23009A   25126.37642155  .00000051  00000+0  00000+0 0  9993
2 55268  55.0909 164.4945 0002885 329.8843 219.0111  2.00571631 17085
BEIDOU-3 G4 (C62)       
1 56564U 23066A   25127.12897657 -.00000116  00000+0  00000+0 0  9992
2 56564   1.3219 291.6175 0005473 175.8807 324.1391  1.00273193  7332
NVS-01 (IRNSS-1J)       
1 56759U 23076A   25126.90871639 -.00000342  00000+0  00000+0 0  9997
2 56759   3.1671 258.3039 0004845  46.2572  17.1185  1.00274942  7042
COSMOS 2569 (703K)      
1 57517U 23114A   25126.87689679  .00000016  00000+0  00000+0 0  9997
2 57517  65.0758  86.3463 0012451 296.3350  63.5145  2.13103828 13601
BEIDOU-3 M28 (C50)      
1 58654U 23207A   25126.28579423 -.00000024  00000+0  00000+0 0  9993
2 58654  55.3894  76.0697 0004389 314.6100  45.3247  1.86229967  9260
BEIDOU-3 M26 (C48)      
1 58655U 23207B   25127.15929135 -.00000030  00000+0  00000+0 0  9997
2 58655  55.3921  76.0261 0004726 295.5941  64.3258  1.86231670  9261
GSAT0225 (GALILEO 29)   
1 59598U 24079A   25124.26989157  .00000044  00000+0  00000+0 0  9995
2 59598  54.8716 112.5177 0002904 265.2297 277.6058  1.70474574  6348
GSAT0227 (GALILEO 30)   
1 59600U 24079C   25125.91505338  .00000049  00000+0  00000+0 0  9992
2 59600  54.8676 112.4721 0000675 348.2273  11.7626  1.70474556  6427
GSAT0232 (GALILEO 32)   
1 61182U 24167A   25126.92375508 -.00000039  00000+0  00000+0 0  9994
2 61182  55.3174 232.4594 0003813 209.1214 244.9911  1.70474465  3953
GSAT0226 (GALILEO 31)   
1 61183U 24167B   25126.60457648 -.00000040  00000+0  00000+0 0  9998
2 61183  55.3164 232.4738 0001995 182.6721 188.1275  1.70474552  3926
BEIDOU-3 M25 (C47)      
1 61186U 24168B   25127.17560058 -.00000075  00000+0  00000+0 0  9993
2 61186  54.8293 316.3129 0003400 306.3027 182.5100  1.86230306  4222
BEIDOU-3 M27 (C49)      
1 61187U 24168C   25127.37209043 -.00000075  00000+0  00000+0 0  9990
2 61187  54.8246 316.2906 0002336  30.9052   4.5204  1.86230418  4253
GPS BIII-7  (PRN 01)    
1 62339U 24242A   25122.76642278 -.00000103  00000+0  00000+0 0  9994
2 62339  54.9814 350.8010 0005332 341.9897 199.8917  2.00557781  3021
NVS-02 (IRNSS-1K)       
1 62850U 25020A   25112.01547669  .00008238 -14398-6  63830-3 0  9995
2 62850  21.0665  52.5431 7387800 232.8801  34.8653  2.17491987  1806
COSMOS 2584 (704K)      
1 63130U 25042A   25126.29415491  .00000021  00000+0  00000+0 0  9998
2 63130  64.8569  86.6586 0007155 235.8010 124.1099  2.13103722  1377
